{"type": "FeatureCollection", "features": [{"type": "Feature", "properties": {"norad_id": 24876, "name": "GPS BIIR-2  (PRN 13)", "group": "gps-ops", "lat": 43.82136522371336, "lon": 146.10529050275008, "alt_km": 19920.17301273707, "timestamp": "2025-12-19T06:59:44.167011+00:00", "meta": {"OBJECT_NAME": "GPS BIIR-2  (PRN 13)", "OBJECT_ID": "1997-035A", "EPOCH": "2025-12-17T17:14:35.709504", "MEAN_MOTION": 2.00563699, "ECCENTRICITY": 0.00967771, "INCLINATION": 55.8976, "RA_OF_ASC_NODE": 105.6742, "ARG_OF_PERICENTER": 56.9662, "MEAN_ANOMALY": 303.9295, "EPHEMERIS_TYPE": 0, "CLASSIFICATION_TYPE": "U", "NORAD_CAT_ID": 24876, "ELEMENT_SET_NO": 999, "REV_AT_EPOCH": 20831, "BSTAR": 0, "MEAN_MOTION_DOT": -2.3e-07, "MEAN_MOTION_DDOT": 0}, "tle": {"line1": "1 24876U 97035A   25351.71846886 -.00000023  00000+0  00000+0 0  9999", "line2": "2 24876  55.8976 105.6742 0096777  56.9662 303.9295  2.00563699208319"}}, "geometry": {"type": "Point", "coordinates": [146.10529050275008, 43.82136522371336]}}, {"type": "Feature", "properties": {"norad_id": 26360, "name": "GPS BIIR-4  (PRN 20)", "group": "gps-ops", "lat": 25.541084581943696, "lon": -172.92411378066174, "alt_km": 20186.159283759418, "timestamp": "2025-12-19T06:59:44.167037+00:00", "meta": {"OBJECT_NAME": "GPS BIIR-4  (PRN 20)", "OBJECT_ID": "2000-025A", "EPOCH": "2025-12-18T04:28:10.585632", "MEAN_MOTION": 2.00567362, "ECCENTRICITY": 0.0038886, "INCLINATION": 55.0484, "RA_OF_ASC_NODE": 26.6175, "ARG_OF_PERICENTER": 242.5017, "MEAN_ANOMALY": 188.1576, "EPHEMERIS_TYPE": 0, "CLASSIFICATION_TYPE": "U", "NORAD_CAT_ID": 26360, "ELEMENT_SET_NO": 999, "REV_AT_EPOCH": 18764, "BSTAR": 0, "MEAN_MOTION_DOT": -7.5e-07, "MEAN_MOTION_DDOT": 0}, "tle": {"line1": "1 26360U 00025A   25352.18623363 -.00000075  00000+0  00000+0 0  9994", "line2": "2 26360  55.0484  26.6175 0038886 242.5017 188.1576  2.00567362187649"}}, "geometry": {"type": "Point", "coordinates": [-172.92411378066174, 25.541084581943696]}}, {"type": "Feature", "properties": {"norad_id": 26407, "name": "GPS BIIR-5  (PRN 22)", "group": "gps-ops", "lat": -8.72075929933248, "lon": -143.8714705979225, "alt_km": 19955.27292652127, "timestamp": "2025-12-19T06:59:44.167053+00:00", "meta": {"OBJECT_NAME": "GPS BIIR-5  (PRN 22)", "OBJECT_ID": "2000-040A", "EPOCH": "2025-12-18T18:27:27.290304", "MEAN_MOTION": 2.0056811, "ECCENTRICITY": 0.0125687, "INCLINATION": 54.8894, "RA_OF_ASC_NODE": 222.3292, "ARG_OF_PERICENTER": 301.9126, "MEAN_ANOMALY": 29.2311, "EPHEMERIS_TYPE": 0, "CLASSIFICATION_TYPE": "U", "NORAD_CAT_ID": 26407, "ELEMENT_SET_NO": 999, "REV_AT_EPOCH": 18632, "BSTAR": 0, "MEAN_MOTION_DOT": 7.5e-07, "MEAN_MOTION_DDOT": 0}, "tle": {"line1": "1 26407U 00040A   25352.76906586  .00000075  00000+0  00000+0 0  9997", "line2": "2 26407  54.8894 222.3292 0125687 301.9126  29.2311  2.00568110186323"}}, "geometry": {"type": "Point", "coordinates": [-143.8714705979225, -8.72075929933248]}}, {"type": "Feature", "properties": {"norad_id": 27663, "name": "GPS BIIR-8  (PRN 16)", "group": "gps-ops", "lat": 41.53368819270093, "lon": 3.6592364525925887, "alt_km": 20062.924385020604, "timestamp": "2025-12-19T06:59:44.167067+00:00", "meta": {"OBJECT_NAME": "GPS BIIR-8  (PRN 16)", "OBJECT_ID": "2003-005A", "EPOCH": "2025-12-18T15:15:29.035872", "MEAN_MOTION": 2.00570647, "ECCENTRICITY": 0.0147663, "INCLINATION": 54.922, "RA_OF_ASC_NODE": 222.1438, "ARG_OF_PERICENTER": 51.8804, "MEAN_ANOMALY": 318.9428, "EPHEMERIS_TYPE": 0, "CLASSIFICATION_TYPE": "U", "NORAD_CAT_ID": 27663, "ELEMENT_SET_NO": 999, "REV_AT_EPOCH": 16769, "BSTAR": 0, "MEAN_MOTION_DOT": 7.5e-07, "MEAN_MOTION_DDOT": 0}, "tle": {"line1": "1 27663U 03005A   25352.63575273  .00000075  00000+0  00000+0 0  9997", "line2": "2 27663  54.9220 222.1438 0147663  51.8804 318.9428  2.00570647167698"}}, "geometry": {"type": "Point", "coordinates": [3.6592364525925887, 41.53368819270093]}}, {"type": "Feature", "properties": {"norad_id": 28190, "name": "GPS BIIR-11 (PRN 19)", "group": "gps-ops", "lat": -52.66721477397455, "lon": -143.6976409270271, "alt_km": 20313.058616812454, "timestamp": "2025-12-19T06:59:44.167080+00:00", "meta": {"OBJECT_NAME": "GPS BIIR-11 (PRN 19)", "OBJECT_ID": "2004-009A", "EPOCH": "2025-12-18T01:19:43.105728", "MEAN_MOTION": 2.00560667, "ECCENTRICITY": 0.01084092, "INCLINATION": 54.9808, "RA_OF_ASC_NODE": 283.0048, "ARG_OF_PERICENTER": 167.7197, "MEAN_ANOMALY": 302.5438, "EPHEMERIS_TYPE": 0, "CLASSIFICATION_TYPE": "U", "NORAD_CAT_ID": 28190, "ELEMENT_SET_NO": 999, "REV_AT_EPOCH": 15931, "BSTAR": 0, "MEAN_MOTION_DOT": -5.1e-07, "MEAN_MOTION_DDOT": 0}, "tle": {"line1": "1 28190U 04009A   25352.05536002 -.00000051  00000+0  00000+0 0  9996", "line2": "2 28190  54.9808 283.0048 0108409 167.7197 302.5438  2.00560667159317"}}, "geometry": {"type": "Point", "coordinates": [-143.6976409270271, -52.66721477397455]}}, {"type": "Feature", "properties": {"norad_id": 28474, "name": "GPS BIIR-13 (PRN 02)", "group": "gps-ops", "lat": -12.920532641916157, "lon": -37.038602345791816, "alt_km": 19807.82776478714, "timestamp": "2025-12-19T06:59:44.167093+00:00", "meta": {"OBJECT_NAME": "GPS BIIR-13 (PRN 02)", "OBJECT_ID": "2004-045A", "EPOCH": "2025-12-18T14:06:14.745888", "MEAN_MOTION": 2.00569895, "ECCENTRICITY": 0.01708674, "INCLINATION": 55.2378, "RA_OF_ASC_NODE": 332.1705, "ARG_OF_PERICENTER": 309.5078, "MEAN_ANOMALY": 245.3843, "EPHEMERIS_TYPE": 0, "CLASSIFICATION_TYPE": "U", "NORAD_CAT_ID": 28474, "ELEMENT_SET_NO": 999, "REV_AT_EPOCH": 15480, "BSTAR": 0, "MEAN_MOTION_DOT": -8.5e-07, "MEAN_MOTION_DDOT": 0}, "tle": {"line1": "1 28474U 04045A   25352.58767067 -.00000085  00000+0  00000+0 0  9993", "line2": "2 28474  55.2378 332.1705 0170867 309.5078 245.3843  2.00569895154800"}}, "geometry": {"type": "Point", "coordinates": [-37.038602345791816, -12.920532641916157]}}, {"type": "Feature", "properties": {"norad_id": 28874, "name": "GPS BIIRM-1 (PRN 17)", "group": "gps-ops", "lat": -43.784061019215414, "lon": -121.63611279692236, "alt_km": 19840.583282385927, "timestamp": "2025-12-19T06:59:44.167105+00:00", "meta": {"OBJECT_NAME": "GPS BIIRM-1 (PRN 17)", "OBJECT_ID": "2005-038A", "EPOCH": "2025-12-18T14:46:52.316256", "MEAN_MOTION": 2.00578112, "ECCENTRICITY": 0.01314599, "INCLINATION": 55.0267, "RA_OF_ASC_NODE": 280.4644, "ARG_OF_PERICENTER": 293.6802, "MEAN_ANOMALY": 240.6678, "EPHEMERIS_TYPE": 0, "CLASSIFICATION_TYPE": "U", "NORAD_CAT_ID": 28874, "ELEMENT_SET_NO": 999, "REV_AT_EPOCH": 14821, "BSTAR": 0, "MEAN_MOTION_DOT": -4.2e-07, "MEAN_MOTION_DDOT": 0}, "tle": {"line1": "1 28874U 05038A   25352.61588329 -.00000042  00000+0  00000+0 0  9999", "line2": "2 28874  55.0267 280.4644 0131459 293.6802 240.6678  2.00578112148212"}}, "geometry": {"type": "Point", "coordinates": [-121.63611279692236, -43.784061019215414]}}, {"type": "Feature", "properties": {"norad_id": 29486, "name": "GPS BIIRM-2 (PRN 31)", "group": "gps-ops", "lat": -20.47233073418185, "lon": -6.180277793591708, "alt_km": 20439.57592632958, "timestamp": "2025-12-19T06:59:44.167117+00:00", "meta": {"OBJECT_NAME": "GPS BIIRM-2 (PRN 31)", "OBJECT_ID": "2006-042A", "EPOCH": "2025-12-18T13:15:57.668256", "MEAN_MOTION": 2.00553965, "ECCENTRICITY": 0.01073199, "INCLINATION": 54.6948, "RA_OF_ASC_NODE": 158.5101, "ARG_OF_PERICENTER": 52.102, "MEAN_ANOMALY": 339.2959, "EPHEMERIS_TYPE": 0, "CLASSIFICATION_TYPE": "U", "NORAD_CAT_ID": 29486, "ELEMENT_SET_NO": 999, "REV_AT_EPOCH": 14077, "BSTAR": 0, "MEAN_MOTION_DOT": 7.3e-07, "MEAN_MOTION_DDOT": 0}, "tle": {"line1": "1 29486U 06042A   25352.55275079  .00000073  00000+0  00000+0 0  9996", "line2": "2 29486  54.6948 158.5101 0107319  52.1020 339.2959  2.00553965140773"}}, "geometry": {"type": "Point", "coordinates": [-6.180277793591708, -20.47233073418185]}}, {"type": "Feature", "properties": {"norad_id": 29601, "name": "GPS BIIRM-3 (PRN 12)", "group": "gps-ops", "lat": -54.34454729744931, "lon": 118.92737269682955, "alt_km": 20419.469813885837, "timestamp": "2025-12-19T06:59:44.167128+00:00", "meta": {"OBJECT_NAME": "GPS BIIRM-3 (PRN 12)", "OBJECT_ID": "2006-052A", "EPOCH": "2025-12-17T22:21:49.359456", "MEAN_MOTION": 2.00574035, "ECCENTRICITY": 0.00878262, "INCLINATION": 54.9695, "RA_OF_ASC_NODE": 221.1921, "ARG_OF_PERICENTER": 87.4631, "MEAN_ANOMALY": 273.6373, "EPHEMERIS_TYPE": 0, "CLASSIFICATION_TYPE": "U", "NORAD_CAT_ID": 29601, "ELEMENT_SET_NO": 999, "REV_AT_EPOCH": 13977, "BSTAR": 0, "MEAN_MOTION_DOT": 7.5e-07, "MEAN_MOTION_DDOT": 0}, "tle": {"line1": "1 29601U 06052A   25351.93182129  .00000075  00000+0  00000+0 0  9992", "line2": "2 29601  54.9695 221.1921 0087826  87.4631 273.6373  2.00574035139770"}}, "geometry": {"type": "Point", "coordinates": [118.92737269682955, -54.34454729744931]}}, {"type": "Feature", "properties": {"norad_id": 32260, "name": "GPS BIIRM-4 (PRN 15)", "group": "gps-ops", "lat": 32.32097935024187, "lon": 114.87555089641202, "alt_km": 19861.13592875158, "timestamp": "2025-12-19T06:59:44.167140+00:00", "meta": {"OBJECT_NAME": "GPS BIIRM-4 (PRN 15)", "OBJECT_ID": "2007-047A", "EPOCH": "2025-12-18T05:42:28.689120", "MEAN_MOTION": 2.0056436, "ECCENTRICITY": 0.01640962, "INCLINATION": 53.959, "RA_OF_ASC_NODE": 87.5314, "ARG_OF_PERICENTER": 85.3192, "MEAN_ANOMALY": 276.5459, "EPHEMERIS_TYPE": 0, "CLASSIFICATION_TYPE": "U", "NORAD_CAT_ID": 32260, "ELEMENT_SET_NO": 999, "REV_AT_EPOCH": 13318, "BSTAR": 0, "MEAN_MOTION_DOT": -4.8e-07, "MEAN_MOTION_DDOT": 0}, "tle": {"line1": "1 32260U 07047A   25352.23783205 -.00000048  00000+0  00000+0 0  9999", "line2": "2 32260  53.9590  87.5314 0164096  85.3192 276.5459  2.00564360133188"}}, "geometry": {"type": "Point", "coordinates": [114.87555089641202, 32.32097935024187]}}]}